Business,WWW,Address,Address2,City,State,Zip,Phone,Email
1/2 Lounge,,136 1/2 Church Street,,Burlington,VT,05401,(802) 865 - 0012,
12 Franklin Street Bed & Breakfast,http://www.12franklinstreet.com/,12 Franklin St,,Brandon,VT,05733,(802) 247-6672,relax@12franklinstreet.com
135 Pearl,,135 Pearl?,,Burlington,VT,05401,(802) 863-2343,
1768 Hubbell Homestead,http://www.colgatepark.com/weddings_colgate_park.html,1545 West Road,,Bennington,VT,05201,(802) 447-3900,
1811 House,http://www.equinoxresort.com/accommodations/inns/1811House/,3654 Main street,,Manchester,VT,05254,,
1820 Wright's Bay On Lake Champlain,http://www.thegolfcourses.net/golfcourses/VT/17782.htm,81 Eagle Mountain Harbor Rd,,Milton,VT,05468,,
1820 Wright's Bay On Lake Champlain,http://www.thegolfcourses.net/golfcourses/VT/17782.htm,81 Eagle Mountain Harbor Rd,,Milton,VT,05468,,
1824 House Inn,http://www.1824house.com/,2150 Main St,,Waitsfield,VT,05673,(802) 496-7555,
1868 Crosby House Bed & Breakfast,http://www.crosbyhouse.com/,175 Western Ave,,Brattleboro,VT,05301,(802) 257-7145,lynn@crosbyhouse.com
242 Main,http://www.myspace.com/242main,242 Main St.,,Burlington,VT,05401,,
,,250 Main Street,,Burlington,VT,05401,(802) 862-2244,booking242main@hotmail.com
2nd Floor,http://www.secondfloorvt.com,165 Church Street,,Burlington,VT,05401,(802) 660-2088,MillenniumDJ2K@aol.com
802 Music,http://www.myspace.com/802musicspringfield or www.myspace.com/802musicbooking,1 Main Street,,Springfield,VT,05156,,dave.802music@gmail.com
A Mountainside B&B In Vermont,http://www.amountainsidebbvt.com/,2577 River Rd,,Arlington,VT,05250,(802) 375-2238,alodge@sover.net
A Taste of Dixie,,22 Main Street,,Winooski,VT,05404,(802) 655-7977,
Adagio Trattoria,http://www.adagiotrattoria.com,132 Main St,,Brattleboro,VT,05301,(802) 254-6046,
Adams Landing Bed & Breakfast,http://www.adamslandingvt.com/,1 Adams Landing Rd Ext,,Grand Isle,VT,05458,(802) 372-4830,
After Dark Music Series at United Methodist Church,www.afterdarkmusicseries.com/,Route 7/ Seminary Street,,Middlebury,VT,05753,(802) 388 - 0216,aftdark@sover.net
Akes' Place,http://www.akesplace.com,134 Church Street,,Burlington,VT,05401,(802) 864.8111,
Albany Town Hall,,980 Main Street,P.O. Box 284,Albany,VT,05820,(802) 755-6100,albany@pop.state.vt.us
Alburg Country Club,http://www.alburggolflinks.com/,230 Route 129,,Alburg,VT,05440,(802) 796-3586,
Alburg Dunes State Park,http://www.vtstateparks.com/htm/alburg.htm,151 Coon Pt Rd,,Alburg,VT,05440,(802) 796-4170,
The Alerin Barn,http://www.thealerinbarn.com/,1838 Spaulding Road,,St. Johnsbury,VT,05819,(802) 748-3417,
Alexandra Bed & Breakfast,http://www.alexandrainn.com/,916 Orchard Road,,Bennington,VT,05201,(802) 442-5619,alexandr@sover.net
All Souls Interfaith Gathering,http://www.allsoulsinterfaith.org,291 Bostwick Road,,Shelburne,VT,05482,(802)  985-3819,
Alldays & Onions,http://www.facebook.com/pages/Alldays-Onions/125886117465906,519 Main St,,Bennington,VT,05201,(802) 447-0043,aorestaurant@aol.com
American Flatbread-Lawson Lane Stage,http://americanflatbread.com/,115 St. Paul St,,Burlington,VT,05401,(802) 861 2199,
American Legion Post 5,http://www.eventective.com/USA/Vermont/Brattleboro/236335/American-Legion-Post-5.html,32 Linden St,,Brattleboro,VT,05301,,
The Andrie Rose Inn,,13 Pleasant Street,,Ludlow,VT,05149,(802) 228-4846,
Angela's Pub,http://www.myspace.com/angelaspub,86 Main St.,,Middlebury,VT,05753,(802) 388-6936,
Arkell Pavilion,http://www.svac.org/arkell_pavilion.html,P.O. Box 617 West Road,,Manchester,VT,05254,(802) 362-1405,info@svac.org
The Arlington Inn,http://www.arlingtoninn.com/,3904 Vt Route 7A,,Arlington,VT,05250,(800) 375-6532,
Arrowhead Golf Course,http://www.thegolfcourses.net/golfcourses/VT/17782.htm,350 Murray Ave,,Milton,VT,05468,,
The Artist's Loft Bed & Breakfast,http://www.theartistsloft.com/,103 Main St,,Brattleboro,VT,05301,(802) 257-5181,
Arvad's Waitsfield,http://www.arvads.com,4740 Main St,,Waitsfield,VT,05676,(802) 244-8973,
Ashley's,,29 Merchant's Row,,Randolph,VT,05060,(802) 728.9182,
AudionX,http://www.audionx.com/,60 Spring Street,,Swanton,VT,05488,(802) 868-1081,
B.U. Emporium,http://business.vermonttoday.com/B+U+Emporium.393208.87868027.home.html,163 Porter's Point Road,,Colchester,VT,05446,(802) 658 - 4292,
Back Inn Time,http://www.backinntime.us,68 Fairfield Street,,St. Albans,VT,05478,(802) 527-5116,
Back To Vermont Pub,,158 Main St.,,Poultney,VT,05764,,
Backstage Pub and Restaurant,,60 Pearl Street,,Essex Junction,VT,05452,(802) 878-5494,
Backstreet,,17 Hudson St.,,St. Albans,VT,05478,(802) 527.2400,
Bad Girls Cafe,,38 Main St.,,Johnson,VT,05656,(802) 635.7025,
The Bakery,,294 North Winooski Ave.,,Burlington,VT,05401,,
Banana Winds Cafe & Pub,,1 Market Pl # 13,,Essex Junction,VT,05452,(802) 879-0752,
The Barn At Lang Farm,http://www.langbarn.com/,51 Upper Main St,,Essex Junction,VT,05452,,
Barnard Inn Restaurant,http://barnardinn.com/,558 Vt Rte 12,,Barnard,VT,05031,(802) 234-9961,
,,"PO Box 244 , VT 05031",,Barnard,VT,05031,(802) 234-9961,
Barnard Town Hall,http://bavt.org/pages/barnardtownhall.html,115 North Road,P.O. Box 274,Barnard,VT,05031,(802) 234-9211,
Barnhouse Bed & Breakfast,http://www.urpampered.com/,P.O. Box 326,,Shelburne,VT,05482,(802)  985-3258,vtwellness@yahoo.com
Barre Municipal Auditorium,http://www.barrecity.org/index.asp?Type=B_BASIC&SEC={D20F27D2-E70C-4010-BDFF-1C82D64697FE},20 Auditorium Hl,,Barre,VT,05641,(802) 476-0256,
Barre Opera House,http://www.barreoperahouse.org,6 North Main Street,,Barre,VT,05641,(802) 476-8188,carol@barreoperahouse.org
Barrows House,http://www.barrowshouse.com/,3156 Route 30,,Dorset,VT,05251,(802) 867-4455,
Barsen House Inn,http://www.barsenhouseinn.com/,53 Tri-town Rd,,Vergennes,VT,05491,(802) 759-2646,
Basement Teen Center,http://www.youthservicebureau.info,Basement of city hall,,Montpelier,VT,05602,(802)223-3877,fuschiagirl2001@yahoo.com
Basin Harbor Club,http://www.basinharbor.com/,4800 Basin Harbor Road,,Vergennes,VT,05491,(802) 475-2311,info@basinharbor.com
Basin Harbor Club,http://www.basinharbor.com/,4800 Basin Harbor Road,,Vergennes,VT,05491,(802) 475-2311,
The Bayside Pavillion,,Lake Rd.,,St. Albans,VT,05478,(802) 527-4730,
BCA Center,http://www.burlingtoncityarts.org/BCACenter/,135 Church Street,,Burlington,VT,05401,(802) 865-7166,clynch@ci.burlington.vt.us
Beattie's Trailside Lodge,http://www.trailsidelodge.com/,115 CoffeeHouse Road,,Killington,VT,05751,,
Beckwood Pond Vermont Inn,http://www.inntravels.com/usa/vt/beckwoodpond.html,1107 Route 5,,Putney,VT,05346,(802) 254-5900,beckwood@sover.net
The Bed & Breakfast At Middlesex College,http://www.central-vt.com/web/middlebb/,677 Center Rd,,Montpelier,VT,05602,,
Bee's Knees,http://www.thebeesknees-vt.com,82 Lower Main St,,Morrisville,VT,05661,(802) 888-7889,sharondeitz@pshift.com
Bellows Falls Opera House,http://www.bfoperahouse.com,7 Square,,Bellows Falls,VT,05101,(802) 463-4766,edhoward@rockbf.org
Best Western New Englander Motor Inn,http://book.bestwestern.com/bestwestern/US/VT/Bennington-hotels/BEST-WESTERN-PLUS-New-Englander-Motor-Inn/Hotel-Overview.do,220 Northside Drive,,Bennington,VT,05201,(802) 442-6311,
Big Picture,http://www.bigpicturetheater.info/,48 Carroll Rd,,Waitsfield,VT,05673,(802) 496-8994,
Big Picture,http://www.bigpicturetheater.info/,48 Carroll Rd,,Waitsfield,VT,05673,(802) 496-8994,
Biltmore Grill,,115 St. Paul St.,,Burlington,VT,05401,(802) 863-9222,
Birch Ridge Inn,http://www.birchridge.com/,37 Butler Rd,,Killington,VT,05751,(802) 422-4293,
The Birdcage Bed & Breakfast Inn,http://www.birdcagevermont.com/english/index.php,224 Wheeler Rd,,Brandon,VT,05733,(802) 247.4634,inn@birdcagevermont.com
Black Diamond Barbeque,,"P.O. 2664 Lake Elmore, Vermont 05657",,Lake Elmore,VT,05657,(802) 888-2275,info@blackdiamondbarbeque.com
Black Door Bar and Bistro,www.blackdoorvt.com,44 Main St,,Montpelier,VT,05602,(802)-223-7070,blackdoorvt@aol.com
Black River Brew Pub,http://www.sandcreekbrewing.com/,207 Main St.,,Ludlow,VT,05149,(802) 228-3100,
Blue Tooth,http://www.sugarbush.com/,1840 Sugarbush Access Rd.,,Warren,VT,05674,(802) 583-6300,
Blueberry Hill Inn,http://www.blueberryhillinn.com,1307 Goshen Ripton Rd,,Goshen,VT,05733,(802) 247-6735,
Boccelli's On The Canal,http://www.boccellisonthecanal.com/,46 Canal Street,,Bellows Falls,VT,05101,(802) 460-1190,boccelli@sover.net
Bonz Smokehouse & Grill,http://www.myspace.com/bonzsmokehouse,97 Portland Street,,Morrisville,VT,05661,(802) 888-6283,
Borders Books Music & Cafe,http://www.borders.com/online/store/StoreDetailView_276?schid=GLBC|Burlington+VT|276,29 Church Street,,Burlington,VT,05401,(802) 865-2711,
Boulder Beach State Park,http://www.vtstateparks.com/htm/boulder.htm,2278 Boulder Beach Rd,,Groton,VT,05046,,
Boys and Girls Club of Brattleboro,http://www.bgcbrattleboro.com/,17 Flat St.,,Brattleboro,VT,05301,(802) 254-5990,rcbgc@sover.net
Boys and Girls Club of Burlington,http://www.bandgclub.org,62 Oak St.,,Burlington,VT,05401,(802)864-5263,jthompson@bandgclub.org
Bradford Town Hall,http://www.bradford-vt.us/page/town_clerk.php,172 North Main Street,P.O. Box 339,Bradford,VT,05033,(802) 222-4727,bradclrk@sover.net
Branbury State Park,http://www.vtstateparks.com/htm/branbury.htm,3570 Lake Dunmore Rd,,Salisbury,VT,05733,(802) 247-5925,
Brandon Inn,http://www.historicbrandoninn.com/,20 Park St,,Brandon,VT,05733,,
Brandon Motor Lodge,http://www.joomla.brandonmotorlodge.com/,2095 Franklin St,,Brandon,VT,05733,1-800-675-7614,
Brattleboro Park System,http://www.brattleboro.org/,230 Main St,,Brattleboro,VT,05301,(802) 254-4541,
Brattleboro Senior Center,http://www.brattleboro.org,207 Main St,,Brattleboro,VT,05301,(802) 257-7570,
Breakwater Cafe & Grill,,1 King Street,,Burlington,VT,05401,(802) 658 - 6276,
Brewski,,Rt 108,,Jeffersonville,VT,05464,(802) 644-5432,
Bridport Town Hall,,82 Crown Point Road,P.O. Box 27,Bridport,VT,05734,(802) 758-2483,bridporttown@gmavt.net
Briggs Opera House,http://www.northernstage.org,2 N. Main Street,PO Box 4287,White River Junction,VT,05001,(802) 296-7000,info@northernstage.org
Brighton Town Hall,,49 Mill Street Extension,P.O. Box 377,Island Pond,VT,05846,(802) 723-4405,Brightonclerk@adelphia.net
Brittany Motel,http://brittanymotel.net/,Historic Route 7A,,Manchester,VT,05254,,
Bromley Mountain Ski Resort,http://www.bromley.com/,3984 Vermont Route 11,,Peru,VT,05152,(802) 824-5522,info@bromley.com
Brownstone Tavern,,132 Library Avenue,,Rutland,VT,05701,(802) 775-8098,
The Bundy Center For The Arts,http://www.eventective.com/USA/Vermont/Waitsfield/75953/The-Bundy-Center-For-The-Arts.html,361 Bundy Road,,Waitsfield,VT,05673,,
Burke Mountain Ski Area,http://www.skiburke.com/,223 Sherburne Lodge Road,,East Burke,VT,05832,,
Burke Mountain Ski Resort,http://www.skiburke.com/,223 Sherburne Lodge Road,,East Burke,VT,05832,(802) 626-7300,
Burlington City Arts,http://www.burlingtoncityarts.com,149 Church Street,,Burlington,VT,05401,(802) 865-7166,
Burlington Waterfont park,http://www.enjoyburlington.com/Parks/WaterfrontPark.cfm,Burlington Waterfont park,,Burlington,VT,05401,(802) 865-7247,
Butler's Restaurant,,70 Essex Way,,Essex Junction,VT,05452,(802) 764-1413,
Button Bay State Park,http://www.vtstateparks.com/htm/buttonbay.htm,5 Button Bay State Park,,Vergennes,VT,05491,(802) 475-2377,
Cafe Provence,http://www.cafeprovencevt.com/,11 Center St,,Brandon,VT,05733,(802) 247-9997.,
Cafe Shelburne,http://www.cafeshelburne.com/,5573 Shelburne Road,,Shelburne,VT,05482,(802)  985-3939,
Cafe Sweet Basil,http://cafesweetbasil.com/,32 Depot Street,,Lyndonville,VT,05851,,drobarts@hotmail.com
Caffe Lena,http://www.caffelena.org,47 Phila St.,P.O. Box  245,Saratoga Springs,NY,12866,518-583-0022,sarahcaffelena.org
Calais Town Hall,,3120 Pekin Brook Road,,Calais,VT,05650,(802) 456-8720,
Camp Abnaki,http://www.campabnaki.org/,1252 Abnaki Road,,North Hero,VT,05474,(802) 372-8275,
Camp Plymouth State Park,,2008 Scout Camp Rd.,,Ludlow,VT,05149,(802) 228-2025,
Candeleros Southwest Grill,,24 Wales Street,,Rutland,VT,05701,,
Capitol Grounds,http://www.capitolgrounds.com,45 State Street,,Montpelier,VT,05602,(802) 223-7800,bob@capitolgrounds.com
Capitol Plaza Hotel & Conference Center,http://www.capitolplaza.com/,100 State Street,,Montpelier,VT,05602,(802) 223-5252,
Carpenter & Main Restaurant,http://www.carpenterandmain.com/,326 Main St,,Norwich,VT,05055,,
The Cascades Lodge and Restaurant,http://www.cascadeslodge.com/,58 Old Mill Rd,,Killington,VT,05751,(800) 345-0113,
Castleton State College,http://www.castleton.edu/,62 Alumni Drive,,Castleton,VT,05443,(802) 468-5611,
The Catamount Arts Building,http://www.catamountarts.org/,115 Eastern Ave.,,St. Johnsbury,VT,05819,(802) 748-2600,
Catering By Dale,http://www.cateringbydale.com,336 Martindale Road,,Shelburne,VT,05482,(802) 985-3871,
Celebration Fireworks VT .com,http://celebrationfireworksvt.com/services.htm,P.O. Box 2007,,St. Albans,VT,05468,(802) 524-7063,
Center Street Alley,http://www.rutlanddowntown.com/2011/02/center-street-alley/,Center Street,,Rutland,VT,05701,,
Centre Congregational Church,http://www.bmcvt.org/,193 Main St.,,Brattleboro,VT,05301,(802) 257-4523,
Chaffee Center for the Visual Arts,http://www.chaffeeartcenter.org/,16 South Main Street,,Rutland,VT,05701,(802) 775-0356,
Chalet Killington,http://www.chaletkillington.com/,2685 Killington Rd,,Killington,VT,05751,(802) 422-3451,
Champion's Tavern,,802,,Winooski,VT,05404,,
Champlain Valley Exposition,http://www.cvfair.com/,105 Pearl Street,P.O. Box 209,Essex Junction,VT,05453,(802) 878-5545,info@cvfair.com
Chandler Music Hall,http://www.chandler-arts.org/,71-73 Main Street,,Randolph,VT,05060,(802) 728-9878,president@chandler-arts.org
Charity's Tavern,http://www.charitysrestaurant.com/,8 Killington Rd.,,Killington,VT,05751,(802) 422-3800,
Charlie B's Pub & Restaurant,http://www.stoweflake.com/,1746 Mountain Road,PO Box 369,Stowe,VT,05672,(802) 253-7355,info@stoweflake.com
Charlie Os,,70 Main St.,,Montpelier,VT,05602,(802) 223-6820,
The Charlmont Restaurant,http://www.sunsetmotorinn.com/,116 VT RT 15W,,Morrisville,VT,05661,(802) 888-4242,
Chef's Table,http://www.necidining.com/chefs-table,118 Main Street,,Montpelier,VT,05602,(802) 229.9202,
The Chester House,http://www.chesterhouseinn.com/,266 Main Street,,Chester,VT,05143,(802) 875-2205,
Chittenden Town Hall,,337 Holden Road,P.O. Box 89,Chittenden,VT,05737,(802) 483-6647,slabcity@together.net
Chow Bella,http://www.chowbella.us,28 North Main Street,,St. Albans,VT,05478,(802) 524-1405,
Chow! Bella,http://www.chowbella.us,28 North Main Street,,St. Albans,VT,05478,(802) 524-1405,chow@chowbella.us
Christ Church - Montpelier,http://www.christchurchvt.org/,64 State Street,,Montpelier,VT,05602,,
Christophe's On The Green,http://chowhound.chow.com/topics/164374,5 N Green St,,Vergennes,VT,05491,,
Church of Our Saviour,http://www.dioceseofvermont.org/Churches/Killington.html,316 Mission Farm Road,,Killington,VT,05751,,
Churchill House Inn,3128 Forest Dale Road,3128 Forest Dale Road,,Brandon,VT,05733,(802) 247-3078,
City Hall Park,http://www.burlingtonvt.gov/,College Street at St Paul Street,,Burlington,VT,05406,,
City Limits,,14 Green St.,,Vergennes,VT,05491,(802) 877-6919,
Claire's Restaurant and Bar,http://www.clairesvt.com/,41 South Main Street,,Hardwick,VT,05843,(802) 472-7053,newvermontcooking@yahoo.com
Clear River Inn,http://www.clearriverinnvt.com/,2614 Vermont 100,,Pittsfield,VT,05762,(802) 626-3207,
Club Metronome,http://www.clubmetronome.com,188 Main St.,,Burlington,VT,05401,(802) 658-4771,alex@clubmetronome.com
Club Vertigo,http://www.clubvertigo1.com,"1 Scale Ave, Building #10",,Rutland,VT,,802.558.5979 / 802.2,info@clubvertigo1.com
Cobbweb,,Sandy Birch Rd.,,Georgia,VT,05468,(802) 849-6945,
Colatina Exit,http://colatinaexit.com/,164 Main Street,PO Box 316,Bradford,VT,05033,(802) 222-9008,
College Of St. Joseph,http://www.csj.edu/,71 Clement Rd,,Rutland,VT,05701,,
The Colonel's Cabin,http://www.colonelscabin.com/wordpress/,940 Route 5,,Dummerston,VT,05301,(802) 254-8884,colonelscabin@inbox.com
Combes Family Inn Bed and Breakfast,,953 East Lake Road,,Ludlow,VT,05149,(802) 228-8799,
Comfort Inn & Suites,http://www.vermontvacationland.com/vermont-site-map.asp,703 US Route 5 South,,St. Johnsbury,VT,05819,866-464-2408,VermontTajMahal@aol.com
Comfort Inn at Maplewood,http://www.comfortinnsuites.com/,213 Paine Turnpike North,,Montpelier,VT,05602,(802) 229-2222,
Comfort Inn Trolley Square,http://www.trails.com/comfort-inn-trolley-square-hotel-8427.html,19 Allen St.,,Rutland,VT,05701,,
Contois Auditorium,,Burlington City Hall,,Burlington,VT,05401,802.865.7166,
Contois Auditorium at City Hall,,149 Church St.,,Burlington,VT,05401,,
Copper Kettle Bed and Breakfast,http://www.copperkettle.net/,22 West Hill Rd.,,Putney,VT,05346,(802) 387-4040,info@copperkettle.net
Cornwall Orchards Bed & Breakfast,http://www.cornwallorchards.com/,1364 Route 30,,Middlebury,VT,05753,(802) 462-2272,
Cortina Inn & Resort,http://www.cortinainn.com/,103 US Route 4,,Killington,VT,05751,(802) 772.7118,
Cottage At Junction Hill,http://www.selectvermontinns.com/camping.php,P O Box 428,,Jeffersonville,VT,05464,,
Country Club Of Barre,http://www.ccofbarre.net/,142 Drake Road Barre,,Barre,VT,05641,(802) 476-7658,ccofbarre@pshift.com
Courtyard by Marriott - Middlebury,http://www.middleburycourtyard.com/,309 Court St,,Middlebury,VT,05753,(802) 802-388-7600,
Creamery  Restaurant,,46 Hill Street,,Danville,VT,05828,(802) 684-3616,
Cuzzin's Nightclub,,39 Mount Snow Road,,Dover,VT,05356,(800) 245-7669,
CVU,,369 CVU Rd.,,Hinesburg,VT,05461,(802) 482-7194,access@cvuhs.org
D.A.R. State Park,http://www.vtstateparks.com/htm/dar.htm,6750 Vt Route 17 W,,Vergennes,VT,05491,,
Daily Planet,,15 Center St.,,Burlington,VT,05401,(802) 862-9647,
The Dairy Center,,2445 Sampsonville Rd,,Enosburg Falls,VT,05450,(802) 933-2030,
Dalem's Chalet,http://www.dalemschalet.com/,78 South St,,Brattleboro,VT,05301,(802) 254-4323,info@dalemschalet.com
Dan's Place,https://plus.google.com/111911631689561115750/about?gl=us&hl=en,31 Main Street,,Bristol,VT,05443,(802) 453-2774,
Days Inn Barre,http://www.daysinn.com/DaysInn/control/Booking/property_info?propertyId=04080,173-175 South Main Street,,Barre,VT,05641,(802) 476-6678,
Days Inn Burlington,http://www.daysinn.com/DaysInn/control/Booking/property_info?propertyId=04873&as_srp=SP2&cid=carat_search-Days_Inn,124 College Parkway,,Colchester,VT,05446,(802) 655-0900,
Deacon's Den,http://www.southvermont.com/westdover/deacons/,Rt 100,,West Dover,VT,05356,(802) 464-9361,
Deer Run Motor Inn,http://www.deerrunmotorinn.com/,80 Deer Run Loop,,Jeffersonville,VT,05464,(802) 644-8866,
The Deming House,http://www.thedeminghouse.com/,3929 Route 7A,,Arlington,VT,05250,(802) 375-9700,webmaster@thedeminghouse.com
The Den,http://www.facebook.com/pages/The-Den/129777150414840,7412 Mountain Road,,Stowe,VT,05672,,
Destiny Nightclub,,Rt. 5,,Ascutney,VT,05030,(802) 674-6671,
Dewey's,,802,,South Royalton,VT,05068,,
Dibden Center For The Arts,http://www.jsc.edu/,337 College Hill,,Johnson,VT,05656,(802) 635-2356,Web.Editor@jsc.edu
Diversity Studios,http://www.diversitystudios.com/Welcome_to_Diversity_Studios_in_Burlington.html,115 College St,,Burlington,VT,05401,(802) 865 2787,info@diversitystudios.com
The Dorset Inn,http://www.dorsetinn.com/,8 Church St On the Green,,Dorset,VT,05251,(802) 867-5500,
Dove Tail Inn,http://www.dovetailinn.com/,3370 Vt Route 30,,Dorset,VT,05251,(802) 867-5747,
The Down Under Bar - at The Silo,http://www.thesilomountsnow.com/,Route 100,,Mount Snow,VT,05356,(802) 464-2553,silorestaurant@yahoo.com
Dunmore Acres,http://www.dunmoreacres.net/,2618 Lake Dunmore Rd,,Brandon,VT,05733,,info@dunmoreacres.net
The Dutch Mill,http://www.dutchmillvt.com,4385 Shelburne Road,,Shelburne,VT,05482,(802) 985-3568,
Echo Lake Inn,,2 Dublin Road,,Ludlow,VT,05149,(802) 228-8602,
Echo Ledge Farm Inn,http://www.merchantcircle.com/business/Echo.Ledge.Farm.Inn.Saint.Johnsbury.VT.802-748-4750,Rr 2,,Saint Johnsbury,VT,05819,(802) 748-4750,
Econo Lodge,http://www.econolodge.com/ires/en-US/html/CitySearch?placename=saint_albans&state=VT&country=US&chain=E&source=gegf555,287 S. Main St.,,St. Albans,VT,05478,(802) 524-5956,
Edgewater Pub,,340 Lakeshore Drive,,Colchester,VT,05446,(802) 865-4214,
Edgewater Pub,,340 Mallets Bay Avenue,,Colchester,VT,05446,(802) 865-4214,
Elley-Long Music Center,,233 Ethan Allen Avenue,,Colchester,VT,05439,,
Elliot House Bed & Breakfast,http://www.elliothouse.com,5779 Dorset Street,,Shelburne,VT,05482,(802) 985-2727,
Elmore State Park,,856 VT Route 12,,Lake Elmore,VT,05657,(802) 888-2982,
Emerson Guest House,http://www.emersonhouse.com/,82 Main St,,Vergennes,VT,05491,(802) 877-6900,
Emily's,http://www.stowehofinn.com/,434 Edson Hill Road,,Stowe,VT,05672,(802) 253-9722,fo@stowehofinn.com
Esox,,194 Main St.,,Burlington,VT,05401,(802) 862-7314,
Essex Country Club,http://www.essexccvt.com/,332 Old Stage Road,,Essex Junction,VT,05452,(802) 879-3232,
Essex Teen Center aka The Stomping Ground,,2 Lincoln St.,,Essex Junction,VT,05452,(802) 878-6988,
Estabrook House Bed And Breakfast,http://www.estabrookhouse.com/,1596 Main Street,,St Johnsbury,VT,05819,(802) 751-8261,innkeeper@estabrookhouse.com
The Exchange Coffee House & Bistro,,Center St. & Merchants Row,,Barre,VT,05641,(802) 775-3337,
The Fairbanks Inn LLC,http://www.stjay.com,401 Western Avenue,,St. Johnsbury,VT,05819,(802) 748-5666,
Fairhill Bed & Breakfast,http://www.innsite.com/inns/A000698.html,724 E Munger St,,Middlebury,VT,05753,,
Faith United Methodist Church,,899 Dorset Street,,S. Burlington,VT,05403,,
The Fan House,http://www.thefanhouse.com/,P O Box 294,,Barnard,VT,05031,(802) 234-6704,swidness@aol.com
Farr's Roadhouse Bar & Grill,,Rt. 2,,Waterbury,VT,06701,,
Ferry Watch Inn,http://home.myfairpoint.net/tdwert1/,121 W Shore Rd,,Grand Isle,VT,05458,,
Fink's Pub & Nightclub,,324 Route 100,,Mount Snow,VT,05356,(802) 464-2553 X12,
Finkerman's Riverside Barbecue,,188 River Street,,Montpelier,VT,,(802) 229 - 2295,
Finnigans Pub,,205 College Street,,Burlington,VT,05401,(802) 864-8209,
Fire & Ice Restaurant,http://www.fireandicerestaurant.com/,26 Seymour St,,Middlebury,VT,05753,(802) 388-7166,
Fire Stones Restaurant,http://www.firestonesrestaurant.net/,Route 4 Waterman Place,,Quechee,VT,05059,(802) 295-1600,
Fitch Hill Inn,http://www.fitchhillinn.com/,258 Fitch Hill Rd,,Hyde Park,VT,05655,(802) 888-3834,
Flat St. Brew Pub and Tap Room,http://www.flatstreetbrewpub.net/,6 Flat Street,,Brattleboro,VT,05301,(802) 257-1911,brewpub@sover.net
Flying Under Radar Concerts,http://www.flyingunderradar.com/,PO Box 653,,Bellows Falls,VT,05101,(802) 463.3669,trains@sover.net
Flynn Theatre,http://www.flynncenter.org,153 Main Street,,Burlington,VT,05401,(802) 863-5966,
Fort Dummer State Park,http://www.vtstateparks.com/htm/fortdummer.htm,517 Old Guilford Rd,,Brattleboro,VT,05301,(802) 254-2610,
Forty Putney Road Bed & Breakfast,http://www.fortyputneyroad.com/,192 Putney Rd,,Brattleboro,VT,05301,(802) 254-6268,
The Four Chimneys Inn,http://www.fourchimneys.com/,21 West Road,,Bennington,VT,05201,(802) 447-3500,
Franklin Conference Center,http://franklinconference.com/,1 Scale Aveneu,,Rutland,VT,05701,(802) 773- 0045,
Franny O's,,733 Queen City Park Road,,Burlington,VT,05401,(802) 863-2909,
Fullerton Inn,http://www.fullertoninn.com/,40 The Common,,Chester,VT,05143,(802) 875-2444,
Gallaghers,,Jct Route 17 & 100,,Waitsfield,VT,05673,(802) 496-8800,
The Garrison Lodge,http://www.garrisoncondos.com/,2354 Mill Brook Rd,,Waitsfield,VT,05763,,
The Gazebo Inn,http://www.vermontgazeboinn.com/,25 Grove St,,Brandon,VT,05733,,gazebo@sover.net
Gifford Woods State Park,http://www.vtstateparks.com/htm/gifford.htm,34 Gifford Woods,,Killington,VT,05751,(802) 775-5354,
Good Times Cafe,,Route 116,P.O. Box 231,Hinesburg,VT,05461,(802) 482-4444,captzapp@together.net
The Governor's House In Hyde Park,,100 Main Street,,Hyde Park,VT,05655,(802) 888-6888,info@onehundredmain.com
Grace Congregational Church,,8 Court Street,,Rutland,VT,05701,(802) 775 - 4301,
Grand Isle State Park,http://www.vtstateparks.com/,36 E Shore,,S.  Grand Isle,VT,05458,(802) 372-4300,
The Grange,,State Highway 30,,Castleton,VT,05735,,
The Green Door Pub,http://www.greendoorpub.com/,Mountain Road,,West Wardsboro,VT,05360,(802) 297-0171,
Green Door Studio,http://www.greendoorstudio.net/,18 Howard Street,,Burlington,VT,05401,(802) 316-1124,dcameron@greendoorstudio.net
Green Mountain Christian Center Conference & Banquet Facility,http://www.greenmtn.org/Conference%20&%20Banquet.html,1506 Harwood Hill Rd,,Bennington,VT,05201,(802) 447-7224,greenmountainpastor@comcast.net
Green Mountain Rock Climbing Center,http://www.vermontclimbing.com,223 Woodstock Avenue,,Rutland,VT,05701,(802) 773-3343,
Green River Bridge House,http://www.greenriverbridgehouse.com,2435 Stage Rd,,Brattleboro,VT,05301,(802) 257-5771,
Green River Inn Bed & Breakfast,http://www.bnbfinder.com/Vermont/Sandgate/Bed-and-Breakfast/Listing/18145/Green_River_Inn,3402 Sandgate Rd,,Sandgate,VT,05250,(802) 648-2212,
The Grey Bonnet Inn,http://www.greybonnetinn.com/content/home/,831 Route 100,,Killington,VT,05751,(802) 775-2537,info@greybonnetinn.com
Grist Mill Restaurant & Lounge,http://www.gristmillkillington.com/,Killington Road,,Killington,VT,05751,(802) 422-3970,gristmill@vermontel.net
Grizzlies at the Stratton Mountain Resort,http://www.stratton.com/index.htm,43 VT Route 30,,Bondville,VT,05340,1 800 STRATTON (787-2886),feedback@stratton.com
Gustos,http://www.gustosbar.com/,28 Prospect Street,,Barre,VT,05641,(802) 476-7919,
Halvorson's,,16 Church Street,,Burlington,VT,05401,(802) 658-0278,patmay@vtsky.net
Hampton Inn & Conference Center,http://hamptoninn.hilton.com/en/hp/hotels/index.jhtml?ctyhocn=BTVMVHX,42 Lower Mountain View Drive,,Colchester,VT,05446,(802) 655-6177,
Hampton Inn Bennington,http://www.hamptoninn.com/en/hp/hotels/index.jhtml?ctyhocn=BENVTHX,51 Hannaford Sq,,Bennington,VT,05201,(802) 440-9862,
Hampton Inn Brattleboro,http://www.hamptoninn.com,1378 Putney Rd,,Brattleboro,VT,05301,,
Hampton Inn Rutland,http://www.rutlandhampton.com,47 Farrell Road,,Rutland,VT,05701,(802) 773-9066,
Hampton Inn-Champlain Ballroom,http://www.HamptonInnBurlington.com,42 Lower Mountain View Drive,,Colchester,VT,05446,(802) 863-5966,dgrahn@sbtinsurance.com
Harrington House Bed & Breakfast,,5059 Shelburne Road,,Shelburne,VT,05842,(802) 985-2313,
Harvest Moon Bed & Breakfast,http://www.harvestmoonvt.com,1659 North Grove Street,,Rutland,VT,05701,(802) 773-0889,
Haskell Free Library and Opera House,http://www.haskellopera.org,93 Caswell Avenue,PO Box 337,Derby Line,VT,05830,(802) 873-3022,info@haskellopera.org
Hathaway Farm,http://www.hathawayfarm.com,741 Prospect Hill Road,,Rutland,VT,05701,(802) 775-2624,
Heart Of The Village Inn,http://www.heartofthevillage.com,5347 Shelburne Road,,Shelburne,VT,05482,(802) 985-2800,
Heatherstone Bed & Breakfast,http://www.visitheatherstone.com/,3324 Jersey St S,,Vergennes,VT,05491,(802) 759-3180,
Hemingway's Restaurant,http://www.hemingwaysrestaurant.com/,4988 Us-4,,Killington,VT,05751,(802) 422-3886,hemwy@sover.net
Henry Farm Inn,http://www.henryfarminn.com/,2206 Green Mountain Turnpike,,Chester,VT,05143,(802) 875-2674,
Henrys at Holiday Inn,,1068 Williston Road,,South Burlington,VT,05403,(802) 863-6361,
Heritage Deli & Bakery,http://www.heritagedeliandbakery.com/,Route 103,,Chester,VT,05143,,
Hickory Ridge House Bed & Breakfast,http://www.hickoryridgehouse.com/Site/Home.html,53 Hickory Ridge Road South,,Putney,VT,05346,(802) 387 5709,
High Meadow Bed and Breakfast,http://highmeadowbb.com/,1742 Goshen-Ripton Road,,Goshen,VT,05733,(802) 247-3820,highmeadowbedandbreakfast@gmail.com
High View Retreat & Spa,http://www.eventective.com/USA/Vermont/Chester/179438/High-View-Retreat-Spa.html,753 E Hill Rd,,Chester,VT,05143,,
Higher Ground,http://www.highergroundmusic.com/,1214 Williston Road,,S. Burlington,VT,05403,(802) 652-0777,
Hildene,http://www.hildene.org/,1005 Hildene Rd,,Manchester,VT,05254,,
Hill Farm Inn,http://www.hillfarminn.com/,458 Hill Farm Road,,Arlington,VT,05250,(802) 882-2545,
Hilltop Inn of Vermont,http://www.hilltopinnvt.net/,3472 Airport Road,,Berlin,VT,05602,(802) 229-5766,
Holiday Inn Express Hotel & Suites Battleboro,,100 Chickering Road,,Brattleboro,VT,05301,(802) 257-2400,
Holiday Inn Rutland,http://www.hivermont.com,476 US Route 7 South,,Rutland,VT,05701,(802) 775-1911,
The Hollow Inn and Motel,http://www.hollowinn.com/,278 South Main Street,,Barre,VT,05641,(802) 479-9313,thehollowinn@charter.net
Homeplace,http://www.homeplacebandb.com/,P O Box 96,,Jericho,VT,05465,(802) 899 4694,
Hooker Dunham Theatre,http://www.hookerdunham.org/,139 Main Street,,Brattleboro,VT,05301,,hd@sover.net or hdtandg@sover.net
Hooper's Pub,,215 Main St.,,Vergennes,VT,05491,(802) 877-3667,
,,38 Main St,,Winooski,VT,5404,(802) 655-3612,
The Hub Pizzeria and Pub,http://www.thehubvt.com/,21 Lower Main St.,,Johnson,VT,05656,(802) 635-7626,contact@thehubvt.com
"Hub Teen Center & Skatepark, The",http://www.bristolskatepark.com,110 Airport Parkway,,Bristol,VT,05443,(802) 453-3678,booking@bristolskatepark.com
The Hulbert Outdoor Center,http://www.alohafoundation.org/hulbert,2968 Lake Morey Road,,Fairlee,VT,05045,,
Hyde Away Inn & Restaurant,http://www.hydeawayinn.com/,1428 Mill Brook Rd,,Waitsfield,VT,05673,(802) 496-2322,
Hyde Park Opera House,http://www.lamoillecountyplayers.com/,85 Main Street,PO Box 9,Hyde Park,VT,05655,(802) 888-4507,info@lcplayers.com
Im Not Yr Dentist Records,http://myspace.com/imnotyrdentist,404 Brand Farm Drive,,South Burlington,VT,05403,(978) 895-6437,imnotyrdentist@gmail.com
The Indigo Lounge,,Rt. 100,,Mount Snow,VT,05356,(802) 464-2500,
Inferno,http://www.gotoinferno.com/,19 Elliot Street,,Brattleboro,VT,05301,(802) 258-6529,virgil@gotoinferno.com
Inn at Baldwin Cree,http://www.innatbaldwincreek.com,1868 North 116 Road,,Bristol,VT,05443,(888) 424-2432,
The Inn at Chelsea Farm,http://www.innatchelseafarm.com/,P O Box 127,,Barnard,VT,05031,(802) 234-9888,innkeeper@innatchelseafarm.com
Inn at Clearwater Pond,http://innatclearwaterpond.com/,984 Quechee-Hartland Road,,Quechee,VT,05059,(802) 295-0606,
The Inn at Lareau Farm,http://www.lareaufarminn.com/,48 Lareau Rd,,Waitsfield,VT,05673,(802) 496-4949,
Inn At Long Trail,,709 Old Route Four,,Killington,VT,05751,(802) 775-7181,
The Inn at Montpelier,http://www.innatmontpelier.com/,147 Main St,,Montpelier,VT,05602,(802) 223-2727,
The Inn at Rutland,http://www.innatrutland.com/,70 North Main Street,,Rutland,VT,05701,(802) 773-0575,
The Inn At The Mad River Barn,http://www.madriverbarn.com/,2849 Millbrook Rd,,Waitsfield,VT,05673,(802) 496-3310,
The Inn At The Round Barn Farm,http://www.theroundbarn.com/,1661 East Warren Road,,Waitsfield,VT,05673,,
The Inn at Weathersfield,http://www.weathersfieldinn.com/,1342 Rte. 106,,Perkinsville,VT,05151,(802) 263-9217,stay@weathersfieldinn.com
Inn at West View Farm,www.innatwestviewfarm.com/,2928 Route 30,,Dorset,VT,05251,(800) 769-4903,
The Inn Of The Six Mountains,http://www.sixmountains.com/,2617 Killington Road,,Killington,VT,05751,(802) 422-4302,
Inn On Covered Bridge Green,http://www.coveredbridgegreen.com/,3587 River Rd,,Arlington,VT,05250,(802) 375-9784 or (800) 726-9480,Stay@CoveredBridgeGreen.com
The Inn On Park Street,http://www.theinnonparkstreet.com/,69 Park Street,,Brandon,VT,05733,,
The Inn On the Green,http://www.innonthegreen.com/,71 S Pleasant St,,Middlebury,VT,05753,(802) 388-7512,
Inn Victoria Vermont Bed and Breakfast,http://www.innvictoria.com/,321 Main St,,Chester,VT,05143,,
Ira Allen Chapel,http://www.bscvermont.org,University of Vermont Campuses,,Burlington,VT,05401,(802) 878-5919,debf@adelphia.net
Ira Allen House,http://www.iraallenhouse.com/,611 State Route 7A,,Manchester,VT,05254,,
Iron Lantern,http://www.ironlanternrestaurant.com/,272 Route 4a,,West Castleton,VT,05735,(802) 468-5474,
Jackson Gore Inn,http://www.okemo.com/okemowinter/,77 Okemo Ridge Road,,Ludlow,VT,05149,1-866-706-5366,info@okemo.com
James Moore Tavern,,Bolton Valley Access Rd.,,Bolton Valley,VT,05477,(802) 434-3444,
Jasper's Tavern,,19  Main St.,,Newport,VT,05855,(802) 334-2224,
Java Babbas,http://www.javababas.com/,57 Pond Street,,Ludlow,VT,05149,(802) 228-4413,
Jay Peak Resort,http://www.jaypeakresort.com,830 Jay Peak Road,,Jay,VT,05859,,
JD McCliment's Pub,http://www.jdmcclimentspub.com/,26 Bellows Falls Road,,Putney,VT,05346,(802) 387-4499,
JD McCliments Pub,http://jdmcclimentspub.com/,26 Bellows Falls Road,,Putney,VT,05346,(802) 387-4499,
JDC's Just Delicious Catering,http://www.justdeliciouscateringvt.com/,567 Mcfarlane Rd,,Hyde Park,VT,05655,,
Jensen's Restaurant,http://www.jensensrestaurant.com/,332 North St,,Bennington,VT,05201,(802) 442-3333,
Jilly's Sports Bar,,24 Merchants Row,,Rutland,VT,05701,(802) 775-6919,
John Egan's Big World,http://www.bigworldvermont.com/,8 Vt Route 17,,Waitsfield,VT,05673,(802) 496-3033,
Johnson State College,http://www.jsc.edu/,337 College Hl,,Johnson,VT,05656,,
JP Morgans,,100 Main Street,,Montpelier,VT,05602,(802) 223-5222,
JPs Pub,,139 Main Street,,Burlington,VT,05401,(802) 658-6389,
Judith's Garden Bed & Breakfast,http://www.eventective.com/USA/Vermont/Brandon/179743/Judith-s-Garden-Bed-Breakfast.html,423 Goshen Ripton Rd,,Brandon,VT,05733,,
Kellogg Hubbard Library,http://www.kellogghubbard.org/,135 Main St,,Montpelier,VT,05602,,
Kept Writer,http://www.keptwriter.com,5 Lake Street,,St. Albans,VT,05478,(802) 527-6242,jedd@keptwriter.com
Kids Playce,http://www.kidsplayce.org/,20 Elliott Street,,Brattleboro,VT,05301,(802) 254-5212,
Kill Kare State Park,http://travel.yahoo.com/p-parks-218019-kill_kare_state_park-i,P.O. Box 123,,St. Albans,VT,05478,(802) 524-6021,
Killington Grand Hotel Resort & Conference Center,http://www.killington.com/summer/index.html,228 East Mountain Road,,Killington,VT,05751,,
Killington Resort,http://www.killington.com/,4763 Killington Road,,Killington,VT,05751,(802) 422-6200,
Killington Resort & Pico Mountain,http://www.killington.com/summer/index.html,4763 Killington Rd,,Killington,VT,05751,(802) 422-3333,
Kincade's,http://www.myspace.com/kincade,384 Rt. 7 So.,,Milton,VT,05468,(802) 893-4649,Kincadeband@hotmail.com
Knapps Underground,http://www.myspace.com/oldknapps,447 Main,,Bennington,VT,05201,,
Knight Point State Park,http://www.vtstateparks.com/htm/knightpoint.htm,44 Knights Point Rd,,North Hero,VT,05474,,
Kwiniaska Golf Club,http://www.kwiniaska.com,5531 Spear Street,,Shelburne,VT,05482,(802) 985-9595,
La Quinta Inn & Suites,http://www.lq.com/lq/properties/propertyProfile.do?ident=LQ2037&propId=2037,813 Fairfax Road,,St. Albans,VT,05481,(802) 524-3300,
Lady Pearls Inn and Lodgng,http://northwoodscenter.org/accommodations.html,1724 E Main Street,,Newport,VT,05855,(802) 334-6748,
Lake Champlain Cruises,http://www.lakechamplaincruises.com/,1 King Street,,Burlington,VT,05401,(802) 864-9669,
Lake Morey Inn & Country Club,http://www.lakemoreyresort.com/History.html,Lake Morey Road,,Fairlee,VT,05045,,
Lamoille Area Recreational Center,http://www.americantowns.com/vt/morrisville/organization/lamoille_area_recreational_center,704 Bridge St,,Morrisville,VT,05661,,
Langdon St. Cafe,www.langdonstcafe.com,4 Langdon St.,,Montpelier,VT,05602,,booking@langdonstreetcafe.com
Leunig's Bistro,,115 Church St.,,Burlington,VT,05401,(802) 863-3759,
The Lilac Inn,,53 Park St,,Brandon,VT,05733,(802) 221-0720,innkeeper@lilacinn.com
Lincoln Inn Lounge,http://www.lincolninn.net,4 Park Street,,Essex Junction,VT,05452,(802) 878-3309,marketing@lincolninn.net
Links At Lang Farm,http://www.linksatlangfarm.com/,51 Upper Main Street,,Essex Junction,VT,05452,(802) 878-0298,
Liquid Lounge/Liquid Energy,,57 Church Street,,Burlington,VT,05401,(802) 860-7666,
The Lloyd O. Selby Community Room,http://www.eventective.com/USA/Vermont/Newport/,400 Quarry Rd,,Newport,VT,05855,,
Local Folks Smokehouse,,101 VT Rt 17,,Waitsfield,VT,05673,(802) 496-2562,
Lookout Bar & Grill,http://www.lookoutvt.com/,2190 Killington Road,,Killington,VT,05751,(802) 422-5665,
Lost Nation Theater/Montpelier City Hall Arts Center,http://www.lostnationtheater.org,39 Main Street,,Montpelier,VT,05602,(802) 229- 0492,info@lostnationtheater.org
Lyndon State College,,1001 College Rd,,Lyndonville,VT,05851,(802) 626-6413,
Mad Mountain Tavern,http://www.madmountain.com,9 Route 100 and 17,,Waitsfield,VT,05673,(802) 496-2562,
Mad River Glen,http://www.madriverglen.com/,62 Mad River Resort Rd,,Waitsfield,VT,05673,(802) 496-3551,
Mad River Glen,http://www.madriverglen.com/,62 Mad River Resort Rd,,Waitsfield,VT,05673,(802) 496-3551,
Mad River Inn,http://www.madriverinn.com/,243 Tremblay Rd,,Waitsfield,VT,05673,(802) 96-7900,
Mad River Inn,http://www.madriverinn.com/,243 Tremblay Rd,,Waitsfield,VT,05673,(802) 96-7900,
Mad River Unplugged at Valley Players Theater,,Route 100,,Waitsfield,VT,05673,(802) 496-8910,
The Magic Hat Brewing Company,,5 Bartlett Bay Road,,South Burlington,VT,05403,(802) 658-2739,
Maglianero,http://blog.maglianero.com/,47 Maple Street,,Burlington,VT,05401,(802) 861-3155,francesca.orsini19@gmail.com
Main Street Grill & Bar,http://www.necidining.com/main-street-grill,118 Main Street,,Montpelier,VT,05602,(802) 223-3188,
Main Street Grill And Bar,http://www.necidining.com/main-street-grill,118 Main Street,,Montpelier,VT,05602,,
Manhattan Pizza,http://www.manhattanpizzaandpubvt.com/,167 Main St.,,Burlington,VT,05401,(802) 658-6776,
Mannsview Inn,http://www.innsite.com/inns/A003804.html,916 Vt Route 108 S,,Jeffersonville,VT,05464,,
Maple Grove Dining Room and Cottages,,1246 Franklin Street,,Brandon,VT,05733,(802) 247-6644,info@cozycottagesvermont.com
The Maple Leaf Inn Bed And Breakfast,http://www.mapleleafinn.com/,5890 VT Rte 12,P.O. Box 273,Barnard,VT,05031,(802) 516-2753,innkeeper@mapleleafinn.com
Maple Tree Place,http://www.shopmtp.com,28 Walnut St.,Suite 260,Williston,VT,05495,(877) 646-5263,
Maplecroft Bed & Breakfast,http://www.maplecroftvermont.com/,70 Washington St,,Barre,VT,05641,(802) 477-5050,innkeeper@maplecroftvermont.com
Marble Island Resort,http://www.thegolfcourses.net/golfcourses/VT/6135.htm,1223 Marble Island Rd,,Colchester,VT,05446,(802) 864-6800,
Marble West Inn,http://www.marblewestinn.com/,1841 Dorset West Road,,Dorset,VT,05251,(802) 867-4155,
Matterhorn,http://www.matterhornbar.com,4969 Mountain Road,,Stowe,VT,05672,(802) 253-8198,horn@stowevt.net
Maxwell's,,Mountain Rd.,,Stowe,VT,05672,(802) 253-8585,
McGrath's Pub at the Inn at Long Trail,http://www.innatlongtrail.com/Home.html,709 Route 4,,Killington,VT,05751,(802) 325-2540 or (802) 775-7181,info@innatlongtrail.com
Mckee's Pub,,19 East Allen Street,,Winooski,VT,05404,(802) 655 - 0048,
Meadowlark Inn Bed And Breakfast,http://www.meadowlarkinnvt.com/,13 Gipson Rd,,Brattleboro,VT,05301,(802) 257-4582,innkeeper@meadowlarkinnvt.com
Memorial Auditorium,,250 Main Street,,Burlington,VT,05401,(802) 863-5966,
Memorial Auditorium,http://www.enjoyburlington.com/Programs/MemorialAuditoriumEvents.cfm,250 Main Street,,Burlington,VT,05401,(802) 864-6044,
Memorial Hall,,Gar Road,,Calais,VT,05650,(802) 456-7473,
Mendon Mountainview Lodge,,78 Us Route 4,,Rutland,VT,05701,(802) 773-4311,
Michael's on the Hill,http://michaelsonthehill.com,"4182 Rt. 100 North, Waterbury Stowe Road",,Waterbury Center,VT,05676,(802) 244-7476,mail@michaelsonthehill.com
Middle Earth Music Hall,,"Barton St., just off Main Street",,Bradford,VT,05033,(802) 222-4748,
Middlebury College Center for the Arts,http://www.middlebury.edu/arts,Route 30 South,,Middlebury,VT,05753,(802) 443-MIDD,cfa@middlebury.edu
The Middlebury Inn,http://www.middleburyinn.com/,Court House Square,,Middlebury,VT,05753,(802) 388-4961,
Millbrook Inn & Restaurant,http://www.millbrookinn.com/,533 Mill Brook Rd,,Waitsfield,VT,05673,,
Millstone Hill,http://www.millstonehill.com/,59 Little John Rd,,Websterville,VT,05678,(802) 479-1000,
Mole's Eye Cafe,http://www.facebook.com/pages/The-Moles-Eye-Cafe/116410551746702,4 High Street,,Brattleboro,VT,05301,(802) 257-0771,
The Monkey House,,30 Main Street,,Winooski,VT,05404,(802) 654-7129,
Monopole,,7 Protection Avenue,,Plattsburgh,NY,12901,(518) 563-2222,
Montpelier Elks Country Club,http://www.thegolfcourses.net/golfcourses/VT/6149.htm,1 Country Club Rd,,Montpelier,VT,05602,(802) 223-7457,
Montpelier Elks Country Club,http://www.thegolfcourses.net/golfcourses/VT/6149.htm,1 Country Club Rd,,Montpelier,VT,05602,(802) 223-7457,
Montpelier Unitarian Church,http://www.unitarianchurchofmontpelier.org/,130 Main St. Montpelier,,Montpelier,VT,05602,(802) 223-7861,
Montshire Museum Of Science,http://www.montshire.org/,1 Montshire Rd,,Norwich,VT,05055,(802) 649-2200,
Montshire Museum Of Science,http://www.montshire.org/,1 Montshire Rd,,Norwich,VT,05055,(802) 649-2200,
Monty's Old Brick Tavern,www.montysoldbricktavern.com,7921 Williston Road,,"Williston, VT",VT,05495,(802) 316-4262,
Moonlight Inn Vermont Bed & Breakfast,http://moonlightinnvermont.com,801 Center Street,,Lyndonville,VT,05851,(802) 626-0780,info@moonlightinnvermont.com
Mount Pleasant Sugarworks,http://www.mountpleasantmaple.com/sugarworks.html,1627 Shackett Rd,,Leicester,VT,05733,(802) 247-3117,info@mountpleasantmaple.com
Mountain Green Ski & Golf Resort,http://www.mtgreen.com/,133 East Mountain Road,,Killington,VT,05751,(802) 422.3000,
Mountain Meadows Lodge,http://www.mountainmeadowslodge.com/,285 Thundering Brook Road,,Killington,VT,05751,(802) 775-1010,
Mountain Valley Farm,http://www.mountainvalleyfarm.com/,1719 Common Rd,,Waitsfield,VT,05673,(802) 496-9255,
Mountain View Campground,http://www.mountainviewcamping.com/,3154 Vt Route 15 E,,Stowe,VT,05661,,
Mountain View Inn,http://www.vtmountainviewinn.com/,1912 Millbrook Rd,,Waitsfield,VT,05673,(802) 496-2426,
Mr. Mikes,http://www.mrmikespizza.com,206 Main Street,,Burlington,VT,05401,(802) 864-0072,
Mt. Anthony Country Club,www.mtanthonycc.com/,180 Country Club Drive,,Bennington,VT,05201,(802) 442-2617,
Muddy Waters,,184 Main Street,,Burlington,VT,05401,(802) 658 - 0466,
Music Box,,147 Creek Road,,Craftsbury,VT,05826,(802) 586-7533,Jenniferrabbit@hotmail.com
Music Club,,110 Business Center Road,,Williamstown,VT,05679,(802) 443 - 6106,
Naked Turtle,,1 Dock Street,,Plattsburgh,NY,12901,(518) 566-6200,
Nectar's,http://www.liveatnectars.com,188 Main Street,,Burlington,VT,05401,(802) 658-4771,damonbrink@liveatnectars.com
New England Maple Museum,http://www.maplemuseum.com,4578 U.S. 7,,Pittsford,VT,05763,(802) 483-9414,
Newport City Motel,http://www.vermonter.com/ncm/,444 East Main Street,,Newport,VT,05855,,
The North End Studio,,294 North Winooski Ave.,,Burlington,VT,05401,(802) 425-2488,
North Hero House,http://www.northherohouse.com/,3643 US Rural Route 2,,North Hero Village,VT,05474,(802) 372-4732,nhhlake@aol.com
North Hero State Park,http://www.vtstateparks.com/htm/northhero.htm,3803 Lakeview Dr,,North Hero,VT,05474,(802) 372-8727,
North Star Lodge,http://www.northstarinn.com/,78 Weathervane Dr,,Killington,VT,05751,(802) 422.4040,
Norwich B n' B,http://www.norwichbnb.com/,229 Bradley Hill Rd,,Norwich,VT,05055,(802) 649-3800,
Norwich Gardens,http://www.norwichgardens.com/,80 US Route 5 S,,Norwich,VT,05055,,
Norwich Inn,http://www.norwichinn.com/,325 Main Street,,Norwich,VT,05055,(802) 649-1143,
Norwich Inn,http://www.norwichinn.com/,325 Main Street,,Norwich,VT,05055,(802) 649-1143,
Nova Mae Cafe,http://novamaecafe.wordpress.com/,512 Main Street,,Bennington,VT,05201,(802) 447-9790,
Nye's Green Valley Farm Bed And Breakfast,http://www.nyesgreenvalleyfarm.com/,8976 Vt Route 15,,Jeffersonville,VT,05464,(802) 644-1984,nyesgvf@yahoo.com
Odd Fellows Temple,,1416 North Ave,,Burlington,VT,05408,(802) 363-7075,
Oddfellows Temple,,1416 North Ave,,Burlington,VT,05401,,
Okemo Mountain Resort,,77 Okemo Ridge Road,,Ludlow,VT,05149,(802) 228-4041,
The Old Brick Church,,100 Library Lane,,Williston,VT,05495,(802) 878-4918,
The Old Homestead,http://www.theoldhomestead.com/,1573 Us Route 5,,S. Barnard,VT,05821,(802) 633-4016,
,,P.O. Box 150,,Barnet,VT,05821,(802) 633-4016,
Old Lantern,http://www.oldlantern.com,3186 Greenbush Road,,Charlotte,VT,05445,(802) 425-2120,petercoleman@gmavt.net
The Old Lantern Inn,http://www.oldlantern.com,3260 Greenbush Road,,Charlotte,VT,05445,,
The Old Mill Inn Bed & Breakfast,http://www.oldmillbb.com/,79 Stone Mill Dam Road,,Brandon,VT,05733,(802) 247-8002,oldmillbnb@yahoo.com
Old Mill River Place Bed and Breakfast,http://www.lakechamplain.worldweb.com/St.AlbansVT/WheretoStay/BedBreakfasts/,68 Fairfield St.,,St. Albans,VT,05478,(802) 527-5116,
Old Town Farm Inn,http://www.otfi.com/,665 Vt Route 10,,Chester,VT,05143,,
Olde Northender Pub,,23 North St.,,Burlington,VT,05401,(802) 864-9888,
On The Rise,http://www.ontherisebakery.net/,39 Esplanade,,Richmond,VT,05477,(802) 05477,
On The Rise Bakery,http://www.ontherisebakery.net,39 Esplanade,,Richmond,VT,05477,(802) 434-7787,booking@ontherisebakery.net
Opus,http://www.opusgrill.com,156 St Paul St,,Burlington,VT,05401,(802)651-4002,info@opusgrill.com
Orion Pub & Grill,,Route 108,,Jeffersonville,VT,05464,(802) 644 - 8884,
Otter Creek Tavern,http://www.ottercktav.bigstep.com,35C Green Street,,Vergennes,VT,05491,(802) 877-3667,
Out of Bounds,,148 State Street,,Rutland,VT,0570,(802) 773-7979,
Outback Pizza,http://www.outbackpizza.com/,2841 Killington Road,,Killington,VT,05751,(802) 422-9885,
Overtime Saloon,,(None),,St. Albans,VT,05478,(802) 849-2935,larivier@sover.net
Owl's Head Blueberry Farm,http://www.owlsheadfarm.com/,263 Blueberry Farm Rd,,Richmond,VT,05477,(802) 434-3387,contactus@owlsheadfarm.com
Pacific Rim,,111 St. Paul Street,,Burlington,VT,50491,(802) 651-3000,
The Packing House Lounge,,293  Hill Street,,Lyndonville,VT,05851,,
Paradise Inn,http://www.vermontparadiseinn.com/,141 Main St,,Bennington,VT,05201,(802) 442-8351,
Paramount Theater,http://www.paramountvt.org/,30 Center Street,,Rutland,VT,05701,(802) 775-0570,alice@paramountvt.org
Paramount Theatre,http://www.paramountlive.org,30 Center Street,,Rutland,VT,05736,(802) 775-0570,
The Parent Farmhouse Bed & Breakfast,http://www.parentfarmhouse.com/,854 Pattee Hill Rd,,Milton,VT,05468,(802) 524.4201,
Parima Restaurant,http://www.parimathai.com/,185 Pearl Street,,Burlington,VT,05401,(802) 864-7917,
Parimas Jazz Room,http://www.parimathai.com,185 Pearl Street,,Burlington,VT,05401,(802) 864-7917,info@parimathai.com
The Park Light Inn,http://www.parklightinn.com/,232 Depot St,,Chester,VT,05143,,
Parker House Inn and Restaurant,http://www.theparkerhouseinn.com,1792 Quechee Main Street,,Quechee,VT,05059,(802)  295-6077,
Paynter's,http://www.hivermont.com/,476 Us Route 7 S,,Rutland,VT,05701,(802) 775-1911,info@hivermont.com
The Peak Chalet,http://peakchalet.com/,184 S View Path,P.O. Box 511,Killington,VT,05751,(802) 422-4278,
Pentangle Council On The Arts,http://www.pentanglearts.org/,31 The Green # 3,,Woodstock,VT,05091,(802) 457-3981,
The Perfect Wife,http://www.perfectwife.com/Welcome.html,2594 Depot Street Route 11,,Manchester,VT,05255,(802) 362-2817,goodfood@perfectwife.com
Peter Havens Restaurant,http://www.frommers.com/destinations/brattleboro/D47291.html,32 Elliot St,,Brattleboro,VT,05301,(802) 257-3333,
Phat Kats,http://www.myspace.com/phatkatstavern,33  Depot Street,,Lyndonville,VT,05851,(802) 626-3064,
Phoenix Bar at Sugarbush Village,,1840 Sugarbush Access Road,,Warren,VT,05674,(802) 583-1024,
Pickle Barrel Nightclub,http://www.picklebarrelnightclub.com/,1741 Killington Road,,Killington,VT,05751,(802) 422-3035,
Pico Mountain Resort,http://www.picomountain.com,4763 Killington Road,,Killington,VT,05751,(866) 667 PICO,
Pierre Motel,http://www.central-vt.com/web/pierre/,362 North Main Street,,Barre,VT,05641,(802) 476-3188,petegray@aol.com
The Pines  Bar & Grill,http://thepinesvt.webs.com/,1 Maple Avenue,,Chelsea,VT,05038,,
The Pitcher Inn,,275 Main St.,,Warren,VT,05674,(802)-496-6350,info@pitcherinn.com
Plainfield Town Hall,,149 Main Street,,Plainfield,VT,05667,,
Positive Pie,http://www.positivepie.com/,22 State Street,,Montpelier,VT,05602,(802) 229-0453,
The Pot Belly Pub & Restaurant,http://www.vtliving.com/potbelly/index.shtml,130 Main Street,,Ludlow,VT,05149,(802) 228-8989,
The Pub Outback,,466  Rt. 114,,East Burke,VT,05832,(802) 626-1188,
The Purple Moon Pub,http://www.purplemoonpub.com/,6163 Vermont 100,,Waitsfield,VT,05673,(802) 496-3422,
Purple Moon Pub,http://www.purplemoonpub.com,Route 100,1/2 Mile South of town,Waitsfield,VT,05673,(802) 496-3422,info@purplemoonpub.com
Putney Inn,http://www.putneyinn.com/,57 Putney Landing Road,,Putney,VT,05346,(800) 653-5517,info@putneyinn.com
The Quail Hollow Inn,http://www.quailhollowinn.com/,225 Pleasant St,,Chester,VT,05143,(802) 875-2794,quailinn@vermontel.net
Quality Inn,http://www.qualityinn.com,84 South Park Drive,,Colchester,VT,05446,(802) 655-1400,
The Quechee Club,http://quecheeclub.memfirstweb.net,3268 Quechee Main Street,,Quechee,VT,05059,(802) 295-9356,
Quechee Inn at Marshland Farm,,1119 Quechee Main Street,,Quechee,VT,05059,(802) 295-3133,
Radio Goddard,http://www.wgdr.org/,123 Pitkin Rd.,,Plainfield,VT,05667,,
Radisson Hotel,http://www.radisson.com,60 Battery Street,,Burlington,VT,05401,(802) 658-6500,jbalgoi@windham.com
Ramada Hotel and Conference Center,http://www.agoda.com/north_america/united_states/brattleboro_vt/ramada_hotel_and_conference_center.html,1380 Putney Road,,Brattleboro,VT,05301,,
Ramada Limited Rutland,http://www.ramada.com,253 South Main Street,,Rutland,VT,05701,(802) 773-3361,
Randolph Area Chamber of Commerce,http://www.randolph-chamber.com/,P.O. Box 9,,Randolph,VT,05060,(802) 728-9027,contact@randolph-chamber.com
Ranney-Crawford Bed & Breakfast,http://www.ranney-crawford.com/,1097 Westminster West Road,,Putney,VT,05346,(802) 387-4150,
Rasputins,,163 Church Street,,Burlington,VT,05401,(802) 864-9324,
The Red Clover Inn & Restaurant,http://www.redcloverinn.com/index.php,7 Woodward Rd,,Killington,VT,05701,(802) 775-2290,
The Red Fox Inn & Tavern,http://www.redfoxinn.com/,Winhall Hollow Road,P.O. Box 707,Bondville,VT,05340,(802)  297-2488 or (866) 2-REDFOX,infored@sover.net
The Red Mill at Basin Harbor Club,,4800 Basin Harbor Road,,Ferrisburgh,VT,05491,802-475-7896,
Red Square,,136 Church Street,,Burlington,VT,05401,(802) 859-8909, baroge@gmail.com
Redmoon Saloon,http://www.myspace.com/redmoonsaloonvt,118 Post Street,,Rutland,VT,05701,(802) 773-0206,
Rhapsody Cafe,,28 Main Street,,Montpelier,VT,05602,(802) 229 - 6112,
Rhythm & Brews Coffeehouse,,UVM,,Burlington,VT,05401,(802) 656 - 4211,
Ri Ra,http://www.rira.com,123 Church Street,,Burlington,VT,05401,(802) 860-9401,
Ricker Pond State Park,http://www.vtstateparks.com/htm/ricker.htm,526 State Forest Rd,,Groton,VT,05046,,
Rimrocks Tavern,,394 Mountain Road,,Stowe,VT,05672,(802) 253-9593,
Ripton Community Coffeehouse,http://www.sover.net/~folkfood/rcch.htm,Route 125,,Ripton,VT,05766,(802) 388-9782,folkfood@sover.net
Ripton Community House,http://rcch.org/,1305 Vermont 125,,Ripton,VT,05766,,
River Arts Center,http://riverartsvt.org/,74 Pleasant Street,,Morrisville,VT,05661,,
River Garden Cafe,http://www.rivergardencafe.com/,427 VT Route 114 (Main Street),P.O. Box 12,East Burke,VT,05832,(802) 626-3514,
Riverwalk Records,http://www.riverwalkrecords.com/,10 State St,,Montpelier,VT,05602,(802) 223-3334,
Roadside Tavern,http://www.roadsidetavernvt.com,216 Rt 7 South,,Milton,VT,05468,(802) 891-6362,
Roaring Branch,http://www.roaringbranch.com/,P.O. Box 8,,Arlington,VT,05250,(802) 375-6401,rblogcab@sover.net
Rock Art Brewery,http://www.rockartbrewery.com/,254 Wilkins St,,Morrisville,VT,05661,,
Rosebelle's Victorian Inn,http://www.rosebelles.com/,31 Franklin St,,Brandon,VT,05733,(802) 247.0098,innkeeper@rosebelles.com
Rotary Park,,170 South Main Street,,Rutland,VT,05701,,
Rowell's Inn Bed & Breakfast,http://www.rowellsinn.com/,1834 Simonsville Rd,,Chester,VT,05143,,
Rozzi's Lakeshore Tavern,,Lakeshore Drive,,Colchester,VT,05446,(802) 863-2342,
Ruben James,,159 Main St.,,Burlington,VT,05401,(802) 864-0744,
Rusty Nail Bar & Grille,http://www.rustynailbar.com,1190 Mountain Rd,,Stowe,VT,05672,(802) 253-6245,ken@rustynailbar.com
,,1190 Mountain Road,,Stowe,VT,05672,(802) 253-NAIL (802-253-6245),
Rutland Country Club,http://www.rutlandcountryclub.com/,P.O. Box 195,,Rutland,VT,05702,(802) 773-7061,
Ryebrook Tavern,http://www.therybrooktavern.com/,782 Harwood Hill Rd,,Bennington,VT,05201,(802) 442-7500,
Saint Michael's College,http://www.smcvt.edu/,1 Winooski Park,,Colchester,VT,05439,(802) 654-2000,
Saint Michael's Playhouse,http://academics.smcvt.edu/playhouse/,1 Winooski Park,,Colchester,VT,05439,(802) 654-2000,
Sam's Charlmont Restaurant,http://www.sunsetmotorinn.com/,116 Vt Route 15 W,,Morrisville,VT,05661,(802) 888-4242,
Sami's Harmony Pub,,216 Route 7,,Milton,VT,05468,(802) 893-7267,
Sampler House Bed & Breakfast,http://www.samplerhouse.com/,22 Main St,,Milton,VT,05468,(802) 893-2724,
Samuel Safford Inne,http://www.samuelsaffordinne.com/,722 Vt Route 9,,Bennington,VT,05201,(802) 442-5934,samuelsaffordinne@myfairpoint.net
Sand Bar State Park,http://www.vtstateparks.com/htm/sandbar.htm,1215 U S Route 2,,Milton,VT,05468,(802) 893-2825,
Santa's Land,http://www.vermontvacation.com/travelPlanner/ItemDetail.aspx?outsideLink=false&spID=16613,Route 5,,Putney,VT,05346,(800) 726-8299,santa@santasland.com
Second Floor Nightclub,http://www.myspace.com/secondfloorvt,165 Church Street,,Burlington,VT,05401,,
Seyon Lodge State Park,,2967 Seyon Pond Rd,,Groton,VT,05046,,
SF Edge of Essex 1,http://www.sfedge.com/,4 Morse Dr,,Essex Junction,VT,05452,(802) 879-7734,
Sha-Booms,,45 Lake Street,,St. Albans,VT,05478,(802) 524-9014,
Shelburne Farms,http://http://www.shelburnefarms.org/,1611 Harbor Road,,Shelburne,VT,05842,(802) 985-8686,
Shelburne Museum,http://www.shelburnemuseum.org,5555 Shelburne Road,,Shelburne,VT,05482,(802) 985-3346,
Shore Acres,http://www.shoreacres.com/,237 Shore Acres Dr,,North Hero,VT,05474,(802) 372-8722,
Sidelines Sports Bar,,22 Center St.,,Rutland,VT,05701,(802) 773-4300,
Signal Kitchen Studios,http://www.signalkitchen.com,71 Main Street,,Burlington,VT,05401,(802) 399-2337,mike@signalkitchen.com
,,71 Main Street,,Burlington,VT,05401,(802) 399-2337,mike@signalkitchen.com
Silver Lake State Park,http://www.vtstateparks.com/htm/silver.htm,20 State Park Beach Rd.,,Barnard,VT,05031,(802) 234-9451,
Simon Pearce The Mill At Quechee,http://www.simonpearce.com,1760 Quechee Main Street,,Quechee,VT,05059,(802) 295-2711,
Sirloin Saloon,http://www.steakseafood.com,200 South Main Street,,Rutland,VT,05701,(802) 773-7900,
Sirloin Saloon,http://www.steakseafood.com,2545 Shelburne Road,,Shelburne,VT,05482,(802)  985-2200,
The Skinner Barn,http://www.theskinnerbarn.com/,609 Common Rd,,Waitsfield,VT,05673,(802) 496-4422,
The Skinny Pancake,http://skinnypancake.com/,60 Lake Street,,Burlington,VT,05401,(802) 540-0188,
SKUNK Hollow Tavern,http://www.skunkhollowtavern.com/,12 Brownsville Rd.,,Hartland Four Corners,VT,05049,(802) 436-2139,
Skunk Hollow Tavern,http://www.skunkhollowtavern.com/,12 Brownsville Road,,Hartland Four Corners,VT,05049,(802) 436-2139,skunkhollowtavern@msn.com
Slade Hall,http://www.uvm.edu/campus/slade/slade.html,420 So. Prospect St,,Burlington,VT,05401,,
Smuggler's Notch Inn,http://www.smuggsinn.com,55 Church St,,Jeffersonville,VT,05464,(802)644-6607,info@smuggsinn.com
Snow Barn (Mount Snow),http://www.mountsnow.com/snowbarn.html,Rt 100,,Wilmington,VT,05363,,
Snow Shoe Lodge & Pub,http://snowshoelodgeandpubvt.com,13 Main St.,,Montgomery,VT,05471,(802) 326-4456,snowshoelodge@hotmail.com
Snowed Inn,http://www.snowedinn.com/,104 Miller Brook Rd,,Killington,VT,05751,(802) 422-3407,
The South Shire Inn,http://www.southshire.com/,124 Elm Street,,Bennington,VT,05201,(802) 447-3839,relax@southshire.com
South Station a Restaurant at Trolley,http://www.southstationrestaurant.com/,US Rte -- 7 170 S.  Main St.,,Rutland,VT,05701,(802) 775-1736,
South Street Cafe,http://http://www.southstreetcafe.com/,105 South St.,,Bennington,VT,05201,(802) 447-2433,
Speaking Volumes,http://www.speakingvolumesvt.com,377 Pine Street,,Burlington,VT,05401,1-802-540-0107,anaii.ender@gmail.com
The Spot,http://www.thespotvt.com/,210 Shelburne Road,,Burlington,VT,05401,(802) 540-1778,
Squiddies,,Rt. 242,,Jay,VT,05859,(802) 988-4459,
Squire House Bed & Breakfast,http://www.squirehouse.com/,3395 Dorset West Rd,,Dorset,VT,05251,,
St Peter's Mission Church,,16 Elm Street,,Lyndonville,VT,05851,(802) 626-5705,
St. Ann's Church Hall,,41 Main Street,,Milton,VT,05468,(802) 893-2487,
St. Barnabas's Epsicopal Church,http://www.st-barnabas-vermont.org/,262 Main Street,,Norwich,VT,05055,,
St. Barnabas's Epsicopal Church,http://www.st-barnabas-vermont.org/,262 Main Street,,Norwich,VT,05055,,
Starksboro Community Coffeehouse,,Route 116,,Starksboro,VT,05487,(802) 453-7996,cuyocuyos@juno.com
Starlight Lounge (Eclipse Theater),http://eclipsetheater.com,Rt. 100,PO Box 709,Waitsfield,VT,05673,(802) 496 - 7787,seedsofsong@hotmail.com
Stella Notte Restaurant Bistro,,VT Route 108,,Jeffersonville,VT,05464,(802) 644-8884,
Stepping Stone Spa And Wellness Center,http://www.steppingstonespa.com/,1545 Darling Hill Road,,Lyndonville,VT,05851,866.626.3104,
Sterling College,http://www.sterlingcollege.edu/,16 Sterling Drive,,Craftsbury Common,VT,05827,(802) 586-7711,
Sterling Meadows Farm,http://www.websterbarn.com/,33 Woods Edge Rd,,Montpelier,VT,05602,,
Sterling Meadows Farm,http://www.websterbarn.com/,33 Woods Edge Rd,,Montpelier,VT,05602,,
Sterling Ridge Resort,http://www.sterlingridgeresort.com/log_cabins.htm,155 Sterling Ridge Dr,,Jeffersonville,VT,05464,800-347-8266,info@sterlingridgeresort.com
Stillwater State Park,http://www.vtstateparks.com/htm/stillwater.htm,44 Stillwater Rd,,Groton,VT,05046,,
The Stone Church,http://www.eventective.com/USA/Vermont/Brattleboro/327935/The-Stone-Church.html,173 Green St,,Brattleboro,VT,05301,,
Stone Cottage Collectable Bed & Breakfast,http://www.stonecottagebb.com/,196 North St,,Chester,VT,05143,,
The Stone Hearth Inn,http://www.stonehearthinnvermont.com/,698 VT Route 11 West,,Chester,VT,05143,,
Stowe Meadows,http://www.stowemeadows.com/,3233 Elmore Mountain Rd,,Elmore,VT,05661,(802) 888-0002,
Stoweflake Mountain Resort and Spa/Charlie B's Pub & Restaurant,http://www.stoweflake.com/index.aspx,"1746 Mountain Road, Stowe",PO Box 369,Stowe,VT,05672,(802) 253-7355,info@stoweflake.com
Stowehof Inn & Resort,http://www.stowehofinn.com,434 Edson Hill Rd,,Stowe,VT,05672,1-800-932-7136,
Stratton Mountain Club,http://www.stratton.com/clubs/smc/index.htm,802,,Burlington,VT,05401,1 800 STRATTON (787-2886),feedback@stratton.com
Strong House Inn,http://www.stronghouseinn.com/,94 W Main St,,Vergennes,VT,05491,(802) 877-3337,
The Studio Place Arts,http://www.studioplacearts.com/,201 N Main St,,Barre,VT,05641,(802) 479.7069,
Sue Z Cues Bar,,108 School St.,,Bennington,VT,05201,(802) 447-8558,
Sugarbush Resort,http://www.sugarbush.com/,1840 Sugarbush Access Road,,Warren,VT,05674,(800) 537-8427,
The Summit Lodge & Resort,,"PO Box 119, Killington Mtn Rd",,Killington,VT,05751,(802) 422-3535,summit@vermontel.com
Super 8 Burlington,http://www.super8vt.com,2572 Shelburne Road,,Shelburne,VT,05482,(802) 985-8037,
Swany's Tavern,,215 Main St.,,Vergennes,VT,05491,(802) 877-3667,
Sweetwaters,http://www.sweetwatersbistro.com,118 Church Street,,Burlington,VT,05401,(802) 864-9800,rcatlan@steakseafood.com
Swift House Inn,http://www.swifthouseinn.com/,25 Stewart Lane,,Middlebury,VT,05753,(802) 388-9925,
T-Bird Motor Inn,http://www.tbirdmotorinn.com,4405 Shelburne Road,,Shelburne,VT,05482,(802) 985-3663,
Tamarack Grill,http://www.skiburke.com/tamarackgrill/,223 Sherburne Lodge Rd.,,East Burke,VT,05832,(802) 626-7390,
Tapas Restaurant & Tavern,http://tapasrutland.com/,128 Merchants Row,,Rutland,VT,05701,(802) 775-1550,
Tavern at the Inn at Essex,http://www.innatessex.com,70 Essex Way,,Essex Junction,VT,05452,(802) 878-1100,jiml@innatessex.com
Three Mountain Lodge,http://www.threemountainlodge.com/,Route 108,,Jeffersonville,VT,05464,(802) 644-5736,threemt@together.net
Three Peaks Inn,,1 River Rd,,Bondville,VT,05340,(802) 297-1414,
Three Tomatoes Trattoria - Rutland,,88 Merchants Row,,Rutland,VT,05701,(802) 747-7747,
The Tinder Box,http://www.myspace.com/thetinderbox,17 Elliot Street,,Brattleboro,VT,05301,,
Tip Top Media and Arts Building,http://www.tiptopmedia.com/,85 North Main Street,,White River Junction,VT,05001,(802) 356-1933,
Town Hall Theatre,http://www.pentanglearts.org/,31 Green,,Woodstock,VT,05091,(802) 457-3981,
Trackside Tavern,,18 Mallets Bay Avenue,,Winooski,VT,05404,(802) 655-9542,
Trailside Lodge,http://www.trailsidelodge.com/,115 Coffeehouse Rd,,Killington,VT,05751,,
Tuckaways (Sheraton),http://www.sheratonburlington.com,1214 Williston Road,,South Burlington,VT,05403,(802) 865-6600,
Tucker Hill Inn & Restaurant,http://www.tuckerhill.com/,65 Marble Hill Road,,Waitsfield,VT,05673,(802) 496-3983,
Tully And Marie's,http://www.tullyandmaries.com/,7 Bakery Ln,,Middlebury,VT,05753,(802) 388-4182,
Tunbridge World's Fair,http://www.tunbridgeworldsfair.com/,1 Fairgrounds Lane,,Tunbridge,VT,05077,,
Tupelo Music Hall,http://www.tupelohallvermont.com/,188 South Main Street,,White River Junction,VT,05001,(802) 698-8341,
The Twilight Tea Lounge,http://twilighttealounge.com/,41 Main Street,,Brattleboro,VT,05301,(802) 254-8887,teatime@twilighttealounge.com
Twin Farms,http://www.twinfarms.com/,452 Royalton Turnpike,,Barnard,VT,05031,(800) 894-6327,info@twinfarms.com
,,P.O. Box 115,,Barnard,VT,05031,,
Two Brothers' Tavern,http://www.twobrotherstavern.com/,86 Main Street,PO Box 691,Middlebury,VT,05753,(802) 388-0002,
Uncle Sam's Pub,www.facebook.com/pages/Uncle-Sams-Pub/186367521430,125 State St.,,Rutland,VT,05701,(802) www.facebook.com/pages/Uncle-,
Unitarian Church,http://www.unitarianchurchofmontpelier.org,130 Main St.,,Montpelier,VT,05602,(802) 223-7861,
Upper Deck Pub (Windjammer),,1076 Williston Road,,South Burlington,VT,05403,(802) 862-6585,
Upper Deck Pub / Windjammer Restaurant,http://windjammerrestaurant.com/,1076 Williston Road  South Burlington,,Burlington,VT,05403,(802) 862-6585,
Upper Valley Events Center,http://www.uvevents.org/,80 Us Route 5 S,,Norwich,VT,05055,(802) 649-2772,
Valencia,,802,,Burlington,VT,05401,(802) 858-8978,
Valencia,,Corner of Pearl Street & So. Winooski,,Burlington,VT,05401,(802) 858-8978,
Vergennes City Hall and Opera House,http://www.vergennesoperahouse.org/,120 Main Street,PO Box 88,Vergennes,VT,05491,(802) 877-6737,info@vergennesoperahouse.org
The Vergennes Opera House,http://www.vergennesoperahouse.org/,P.O. Box 88,,Vergennes,VT,05491,,
Vermont Arts Exchange,http://www.vtartxchange.org/,29 Sage Street Mill,P.O. Box 725,North Bennington,VT,05257,(802) 442-5549,vae@comcast.net
The Vermont Inn,http://www.vermontinn.com/,69 Us Route 4,,Killington,VT,05751,(802) 775-0708,relax@vermontinn.com
Vermont Pub and Brewery,http://vermontbrewery.com,144 College St,,Burlington,VT,05401,(802) 865-0500,vpb@pshift.com
Vermont Technical College,http://www.vtc.edu/,05061,,Randolph Center,VT,05061,1-800-442-8821,
VFW Post,,176 South Winooski Avenue,,Burlington,VT,05401,(802) 864-6532,
Villa Tragara,,RR2 Box 881,,Waterbury,VT,05676,(802) 244-5288,
Village Cup,,30 Route 15,,Jericho,VT,05465,(802) 899-1730,
Village Victorian Bed & Breakfast,http://villagevictorian.com/,107 Union St,,Morrisville,VT,05661,(802) 888-8850,
Waf's Westside Deli!,http://www.wafswestsidedeli.com/Cached,165 East Allen St.,,Winooski,VT,05404,(802) 655-0290,
Wagner Road B & B,http://www.wagnerroadbnb.com/,P.O. Box 670,,St. Albans,VT,05478,(802) 849-6030,
The Waitsfield Inn,http://www.waitsfieldinn.com/,5267 Main St,,Waitsfield,VT,05673,(802) 496-3979,
Wasted City,http://www.myspace.com/justingonyea,1610 Troy Avenue,,Colchester,VT,05495,(802) 324-8935,justin@ofburlington.com
Water's Edge Bed & Breakfast,http://www.watersedgebb.com/,324 Wishing Well Ave,,Newport,VT,05855,,
The Webster Barn at Sterling Meadows Farm,http://www.websterbarn.com/,309 Webster Rd,,Hyde Park,VT,05655,(802) 888.9206,
West Mountain Inn,http://www.westmountaininn.com/,144 W Mountain Inn Rd,,Arlington,VT,05250,(802) 375-6516,info@westmountaininn.com
West Rutland Town Hall,http://www.wrutland.org/,35 Marble Street,,West Rutland,VT,05777,(802) 438-2263,townmanager@wrutland.org
West Shore Cabins,http://westshorecabinsvt.com/,888 Us Route 2,,North Hero,VT,05474,,
Weston Playhouse,,703 Main Street,,Weston,VT,05161,(802) 824 - 8167,
White Horse Inn,http://www.whitehorseinn.org/,999 German Flats Road,,Waitsfield,VT,05673,,
Whitford House Inn,,912 Grandey Rd,,Vergennes,VT,05491,(802) 758-2704,
Whitford House Inn Bed And Breakfast,http://www.whitfordhouseinn.com/,912 Grandey Rd,,Vergennes,VT,05491,(802) 758-2704,
the Wildflower Inn,,2059 Darling Hill Road,,Lyndonville,VT,05851,(802) 626-8310,
Willey Memorial Building,,3084 Main St,PO Box 36,Cabot,VT,05647,(802) 563-2279,
The Willow And Lotus Bed And Breakfast,http://www.willowlotus.com/,3958 Route 30,,Middlebury,VT,05753,(802) 462-2519,
Windsor Station Pub,,27 Depot Ave,,Windsor,VT,05089,(802) 674-2052,
Wine Works,www.wineworks.com,135 St. Paul St.,,Burlington,VT,05495,802.860.9463,contact@wineworks.net
The Wobbly Barn,http://www.wobblybarn.net/site/index.html,2229 Killington Access Rd.,,Killington,VT,05751,(802) 422-3392,Entertainment@wobblybarn.com
The Woodstock Inn & Resort,http://www.woodstockinn.com/,14 The Green,,Woodstock,VT,05091,(802) 448-7900,
Woodstock Town Hall Theatre,http://www.pentanglearts.org,31 The Green,,Woodstock,VT,05091,(802) 457-3981,pentarts@sover.net
